OBJECT_NAME,OBJECT_ID,EPOCH,MEAN_MOTION,ECCENTRICITY,INCLINATION,RA_OF_ASC_NODE,ARG_OF_PERICENTER,MEAN_ANOMALY,EPHEMERIS_TYPE,CLASSIFICATION_TYPE,NORAD_CAT_ID,ELEMENT_SET_NO,REV_AT_EPOCH,BSTAR,MEAN_MOTION_DOT,MEAN_MOTION_DDOT
FASTSAT-HSV01 (USA 220),2010-062D,2026-07-23T01:40:15.758976,14.82171658,.00148321,71.9718,79.9133,56.9397,303.3189,0,U,37225,999,11944,.59266847E-4,.415E-5,0
HYLAS 1,2010-065A,2026-07-23T00:20:12.737184,1.00645786,.00012168,5.7316,72.5747,133.3368,142.7165,0,U,37237,999,724,0,.1E-5,0
INTELSAT 17 (IS-17),2010-065B,2026-07-23T03:01:58.984032,1.00272272,.00023963,0.0172,101.0219,20.7888,290.5478,0,U,37238,999,5360,0,.3E-7,0
BEIDOU-2 IGSO-2,2010-068A,2026-07-21T21:04:35.859648,1.00271863,.00570454,47.4828,271.3972,214.5351,238.1175,0,U,37256,999,5714,0,-.198E-5,0
EUTELSAT KA-SAT 9A,2010-069A,2026-07-23T06:10:58.003392,1.00269411,.0004726,0.0680,340.1857,167.4079,255.1437,0,U,37258,999,4436,0,.66E-6,0
HISPASAT 30W-5,2010-070A,2026-07-23T05:59:51.568224,1.00275104,.00057925,0.0233,155.4972,338.1506,227.3037,0,U,37264,999,5354,0,-.211E-5,0
KOREASAT 6,2010-070B,2026-07-23T03:28:48.910656,1.00273018,.00029502,0.0148,310.0213,179.0477,23.9114,0,U,37265,999,5713,0,-.107E-5,0
BEIDOU-2 IGSO-3,2011-013A,2026-07-21T11:51:52.944192,1.00259347,.00358813,62.4558,39.8259,183.5212,359.9880,0,U,37384,999,5600,0,-.172E-5,0
RESOURCESAT-2,2011-015A,2026-07-23T06:22:45.928704,14.21600905,.0011996,98.7625,271.4547,148.8871,211.3019,0,U,37387,999,79130,.448999E-4,.54E-6,0
YOUTHSAT,2011-015B,2026-07-22T20:58:04.636128,14.25642919,.00133535,98.3711,176.3238,234.6831,153.2866,0,U,37388,999,79272,.81302387E-4,.151E-5,0
X-SAT,2011-015C,2026-07-23T05:46:42.529728,14.25215517,.00128532,98.3539,179.5514,234.7032,125.2947,0,U,37389,999,79281,.33399673E-4,.37E-6,0
INTELSAT 28 (IS-28),2011-016A,2026-07-23T05:59:21.615072,1.00271117,.00040277,1.8967,82.1851,44.0862,232.8386,0,U,37392,999,5364,0,-.222E-5,0
YAHSAT 1A,2011-016B,2026-07-23T06:23:04.343136,1.00269881,.00034746,0.0157,77.7896,36.7565,334.7064,0,U,37393,999,4277,0,.106E-5,0
SBIRS GEO-1 (USA 230),2011-019A,2026-07-23T02:57:59.366592,1.00272470,.00018734,4.6132,53.0874,62.9581,281.1155,0,U,37481,999,5575,0,.1E-5,0
TELSTAR 14R,2011-021A,2026-07-23T06:48:26.000928,0.98982105,.00079581,0.1037,85.0263,294.5132,282.5873,0,U,37602,999,5619,0,.29E-6,0
GSAT-8,2011-022A,2026-07-23T02:58:51.782880,1.00272344,.00025321,2.2212,81.3863,149.9343,169.3306,0,U,37605,999,5357,0,.87E-6,0
ST-2,2011-022B,2026-07-23T03:42:38.687616,1.00270723,.00015495,0.0171,55.2326,76.4466,312.8775,0,U,37606,999,5563,0,0,0
ZHONGXING-10,2011-026A,2026-07-23T03:42:38.687616,1.00273093,.00036761,1.1378,83.7989,22.0531,336.2184,0,U,37677,999,5535,0,-.185E-5,0
SJ-11-03,2011-030A,2026-07-23T07:07:02.191296,14.64368666,.00067157,97.9361,167.0407,283.0160,213.4220,0,U,37730,999,80239,.14545314E-3,.723E-5,0
GLOBALSTAR M083,2011-033A,2026-07-23T03:46:42.237984,12.62258606,.000069,51.9852,262.9816,113.6176,272.9985,0,U,37739,999,69749,.73343859E-4,-.91E-6,0
GLOBALSTAR M088,2011-033B,2026-07-23T07:40:42.714048,12.62269562,.00001983,52.0195,168.9984,33.4122,130.8600,0,U,37740,999,69305,.86537532E-4,-.88E-6,0
GLOBALSTAR M091,2011-033C,2026-07-23T04:03:29.859840,12.62264327,.00006081,51.9992,132.3705,37.5082,101.4618,0,U,37741,999,69382,.15488907E-4,-.101E-5,0
GLOBALSTAR M085,2011-033D,2026-07-23T03:54:44.948736,12.62264550,.00009204,52.0129,83.7129,55.3823,115.9644,0,U,37742,999,69433,.7106489E-5,-.103E-5,0
GLOBALSTAR M081,2011-033E,2026-07-23T02:36:35.053056,12.62265450,.00007876,51.9961,86.2730,65.9975,98.4661,0,U,37743,999,69447,.15744358E-4,-.101E-5,0
GLOBALSTAR M089,2011-033F,2026-07-23T01:42:23.177376,12.62267686,.00007251,51.9941,40.5389,99.3141,75.2064,0,U,37744,999,69531,.29139683E-4,-.99E-6,0
SES-3,2011-035A,2026-07-23T06:47:39.014880,1.00272145,.00022872,1.4172,82.6901,38.7892,178.4616,0,U,37748,999,5495,0,-.99E-6,0
KAZSAT-2,2011-035B,2026-07-23T03:42:38.687616,1.00271483,.00022303,0.0230,112.2055,55.9535,274.9134,0,U,37749,999,5375,0,-.193E-5,0
NAVSTAR 66 (USA 232),2011-036A,2026-07-23T06:22:39.492768,2.00562010,.01414743,56.5462,330.6164,62.9403,299.1581,0,U,37753,999,11000,0,-.111E-5,0
BEIDOU-2 IGSO-4,2011-038A,2026-07-22T23:49:25.548384,1.00278691,.0160072,54.6048,165.3543,231.4898,355.6942,0,U,37763,999,5500,0,-.35E-6,0
SJ-11-02,2011-039A,2026-07-23T04:56:19.480992,14.64512039,.00112003,98.2575,94.3234,143.9737,24.3522,0,U,37765,999,79922,.86550514E-4,.41E-5,0
ASTRA 1N,2011-041A,2026-07-23T06:13:57.716256,1.00274057,.0006083,0.0673,25.7179,92.2663,295.6864,0,U,37775,999,4488,0,.124E-5,0
