FASTSAT-HSV01 (USA 220) 
1 37225U 10062D   26204.06962684  .00000415  00000+0  59267-4 0  9995
2 37225  71.9718  79.9133 0014832  56.9397 303.3189 14.82171658119442
HYLAS 1                 
1 37237U 10065A   26204.01403631  .00000100  00000+0  00000+0 0  9995
2 37237   5.7316  72.5747 0001216 133.3368 142.7165  1.00645786  7241
INTELSAT 17 (IS-17)     
1 37238U 10065B   26204.12637713  .00000003  00000+0  00000+0 0  9990
2 37238   0.0172 101.0219 0002396  20.7888 290.5478  1.00272272 53604
BEIDOU-2 IGSO-2         
1 37256U 10068A   26202.87819282 -.00000198  00000+0  00000+0 0  9992
2 37256  47.4828 271.3972 0057045 214.5351 238.1175  1.00271863 57143
EUTELSAT KA-SAT 9A      
1 37258U 10069A   26204.25761578  .00000066  00000+0  00000+0 0  9996
2 37258   0.0680 340.1857 0004726 167.4079 255.1437  1.00269411 44360
HISPASAT 30W-5          
1 37264U 10070A   26204.24990241 -.00000211  00000+0  00000+0 0  9998
2 37264   0.0233 155.4972 0005792 338.1506 227.3037  1.00275104 53545
KOREASAT 6              
1 37265U 10070B   26204.14501054 -.00000107  00000+0  00000+0 0  9992
2 37265   0.0148 310.0213 0002950 179.0477  23.9114  1.00273018 57137
BEIDOU-2 IGSO-3         
1 37384U 11013A   26202.49436278 -.00000172  00000+0  00000+0 0  9995
2 37384  62.4558  39.8259 0035881 183.5212 359.9880  1.00259347 56004
RESOURCESAT-2           
1 37387U 11015A   26204.26580936  .00000054  00000+0  44900-4 0  9998
2 37387  98.7625 271.4547 0011996 148.8871 211.3019 14.21600905791305
YOUTHSAT                
1 37388U 11015B   26203.87366477  .00000151  00000+0  81302-4 0  9992
2 37388  98.3711 176.3238 0013353 234.6831 153.2866 14.25642919792723
X-SAT                   
1 37389U 11015C   26204.24077002  .00000037  00000+0  33400-4 0  9997
2 37389  98.3539 179.5514 0012853 234.7032 125.2947 14.25215517792811
INTELSAT 28 (IS-28)     
1 37392U 11016A   26204.24955573 -.00000222  00000+0  00000+0 0  9992
2 37392   1.8967  82.1851 0004027  44.0862 232.8386  1.00271117 53649
YAHSAT 1A               
1 37393U 11016B   26204.26602249  .00000106  00000+0  00000+0 0  9994
2 37393   0.0157  77.7896 0003474  36.7565 334.7064  1.00269881 42776
SBIRS GEO-1 (USA 230)   
1 37481U 11019A   26204.12360378  .00000100  00000+0  00000+0 0  9998
2 37481   4.6132  53.0874 0001873  62.9581 281.1155  1.00272470 55756
TELSTAR 14R             
1 37602U 11021A   26204.28363427  .00000029  00000+0  00000+0 0  9991
2 37602   0.1037  85.0263 0007958 294.5132 282.5873  0.98982105 56198
GSAT-8                  
1 37605U 11022A   26204.12421045  .00000087  00000+0  00000+0 0  9993
2 37605   2.2212  81.3863 0002532 149.9343 169.3306  1.00272344 53577
ST-2                    
1 37606U 11022B   26204.15461444  .00000000  00000+0  00000+0 0  9999
2 37606   0.0171  55.2326 0001549  76.4466 312.8775  1.00270723 55632
ZHONGXING-10            
1 37677U 11026A   26204.15461444 -.00000185  00000+0  00000+0 0  9996
2 37677   1.1378  83.7989 0003676  22.0531 336.2184  1.00273093 55351
SJ-11-03                
1 37730U 11030A   26204.29655314  .00000723  00000+0  14545-3 0  9997
2 37730  97.9361 167.0407 0006715 283.0160 213.4220 14.64368666802397
GLOBALSTAR M083         
1 37739U 11033A   26204.15743331 -.00000091  00000+0  73344-4 0  9993
2 37739  51.9852 262.9816 0000690 113.6176 272.9985 12.62258606697490
GLOBALSTAR M088         
1 37740U 11033B   26204.31993882 -.00000088  00000+0  86538-4 0  9996
2 37740  52.0195 168.9984 0000198  33.4122 130.8600 12.62269562693055
GLOBALSTAR M091         
1 37741U 11033C   26204.16909560 -.00000101  00000+0  15489-4 0  9993
2 37741  51.9992 132.3705 0000608  37.5082 101.4618 12.62264327693823
GLOBALSTAR M085         
1 37742U 11033D   26204.16302024 -.00000103  00000+0  71065-5 0  9991
2 37742  52.0129  83.7129 0000920  55.3823 115.9644 12.62264550694339
GLOBALSTAR M081         
1 37743U 11033E   26204.10873904 -.00000101  00000+0  15744-4 0  9995
2 37743  51.9961  86.2730 0000787  65.9975  98.4661 12.62265450694473
GLOBALSTAR M089         
1 37744U 11033F   26204.07110159 -.00000099  00000+0  29140-4 0  9999
2 37744  51.9941  40.5389 0000725  99.3141  75.2064 12.62267686695310
SES-3                   
1 37748U 11035A   26204.28309045 -.00000099  00000+0  00000+0 0  9991
2 37748   1.4172  82.6901 0002287  38.7892 178.4616  1.00272145 54956
KAZSAT-2                
1 37749U 11035B   26204.15461444 -.00000193  00000+0  00000+0 0  9995
2 37749   0.0230 112.2055 0002230  55.9535 274.9134  1.00271483 53758
NAVSTAR 66 (USA 232)    
1 37753U 11036A   26204.26573487 -.00000111  00000+0  00000+0 0  9994
2 37753  56.5462 330.6164 0141474  62.9403 299.1581  2.00562010110006
BEIDOU-2 IGSO-4         
1 37763U 11038A   26203.99265681 -.00000035  00000+0  00000+0 0  9995
2 37763  54.6048 165.3543 0160072 231.4898 355.6942  1.00278691 55001
SJ-11-02                
1 37765U 11039A   26204.20578103  .00000410  00000+0  86551-4 0  9995
2 37765  98.2575  94.3234 0011200 143.9737  24.3522 14.64512039799221
ASTRA 1N                
1 37775U 11041A   26204.25969579  .00000124  00000+0  00000+0 0  9997
2 37775   0.0673  25.7179 0006083  92.2663 295.6864  1.00274057 44883
